CCSDS_OMM_VERS = 2.0
CREATION_DATE  = 
ORIGINATOR     = 

OBJECT_NAME    = STARLINK-37108
OBJECT_ID      = 2026-053M
CENTER_NAME    = EARTH
REF_FRAME      = TEME
TIME_SYSTEM    = UTC
MEAN_ELEMENT_THEORY = SGP/SGP4

EPOCH          = 2026-03-23T18:00:02.999808
MEAN_MOTION    = 15.98101819
ECCENTRICITY   = .00014417
INCLINATION    = 97.2782
RA_OF_ASC_NODE = 317.6049
ARG_OF_PERICENTER = 91.6419
MEAN_ANOMALY   = 336.1732

EPHEMERIS_TYPE = 0
CLASSIFICATION_TYPE = U
NORAD_CAT_ID   = 68218
ELEMENT_SET_NO = 999
REV_AT_EPOCH   = 227
BSTAR          = -.46213359E-2
MEAN_MOTION_DOT = -.2083363E-1
MEAN_MOTION_DDOT = .12594443E-2

CCSDS_OMM_VERS = 2.0
CREATION_DATE  = 
ORIGINATOR     = 

OBJECT_NAME    = STARLINK-37106
OBJECT_ID      = 2026-053N
CENTER_NAME    = EARTH
REF_FRAME      = TEME
TIME_SYSTEM    = UTC
MEAN_ELEMENT_THEORY = SGP/SGP4

EPOCH          = 2026-03-23T18:00:02.999808
MEAN_MOTION    = 15.98238011
ECCENTRICITY   = .00014339
INCLINATION    = 97.2782
RA_OF_ASC_NODE = 317.6056
ARG_OF_PERICENTER = 76.9815
MEAN_ANOMALY   = 352.6288

EPHEMERIS_TYPE = 0
CLASSIFICATION_TYPE = U
NORAD_CAT_ID   = 68219
ELEMENT_SET_NO = 999
REV_AT_EPOCH   = 227
BSTAR          = -.45725475E-2
MEAN_MOTION_DOT = -.2076994E-1
MEAN_MOTION_DDOT = .12540855E-2

CCSDS_OMM_VERS = 2.0
CREATION_DATE  = 
ORIGINATOR     = 

OBJECT_NAME    = STARLINK-37030
OBJECT_ID      = 2026-053P
CENTER_NAME    = EARTH
REF_FRAME      = TEME
TIME_SYSTEM    = UTC
MEAN_ELEMENT_THEORY = SGP/SGP4

EPOCH          = 2026-03-23T18:00:02.999808
MEAN_MOTION    = 15.98545768
ECCENTRICITY   = .0001429
INCLINATION    = 97.2777
RA_OF_ASC_NODE = 317.6071
ARG_OF_PERICENTER = 83.0242
MEAN_ANOMALY   = 350.5991

EPHEMERIS_TYPE = 0
CLASSIFICATION_TYPE = U
NORAD_CAT_ID   = 68220
ELEMENT_SET_NO = 999
REV_AT_EPOCH   = 227
BSTAR          = -.45945945E-2
MEAN_MOTION_DOT = -.2122435E-1
MEAN_MOTION_DDOT = .13119051E-2

CCSDS_OMM_VERS = 2.0
CREATION_DATE  = 
ORIGINATOR     = 

OBJECT_NAME    = STARLINK-37012
OBJECT_ID      = 2026-053Q
CENTER_NAME    = EARTH
REF_FRAME      = TEME
TIME_SYSTEM    = UTC
MEAN_ELEMENT_THEORY = SGP/SGP4

EPOCH          = 2026-03-23T18:00:02.999808
MEAN_MOTION    = 15.98396022
ECCENTRICITY   = .00014487
INCLINATION    = 97.2778
RA_OF_ASC_NODE = 317.6063
ARG_OF_PERICENTER = 76.8136
MEAN_ANOMALY   = 354.7645

EPHEMERIS_TYPE = 0
CLASSIFICATION_TYPE = U
NORAD_CAT_ID   = 68221
ELEMENT_SET_NO = 999
REV_AT_EPOCH   = 227
BSTAR          = -.46197753E-2
MEAN_MOTION_DOT = -.2116487E-1
MEAN_MOTION_DDOT = .13025569E-2

CCSDS_OMM_VERS = 2.0
CREATION_DATE  = 
ORIGINATOR     = 

OBJECT_NAME    = STARLINK-37110
OBJECT_ID      = 2026-053R
CENTER_NAME    = EARTH
REF_FRAME      = TEME
TIME_SYSTEM    = UTC
MEAN_ELEMENT_THEORY = SGP/SGP4

EPOCH          = 2026-03-23T18:00:02.999808
MEAN_MOTION    = 15.98653540
ECCENTRICITY   = .00015176
INCLINATION    = 97.2778
RA_OF_ASC_NODE = 317.6079
ARG_OF_PERICENTER = 74.1388
MEAN_ANOMALY   = 1.4006

EPHEMERIS_TYPE = 0
CLASSIFICATION_TYPE = U
NORAD_CAT_ID   = 68222
ELEMENT_SET_NO = 999
REV_AT_EPOCH   = 227
BSTAR          = -.44148317E-2
MEAN_MOTION_DOT = -.2052344E-1
MEAN_MOTION_DDOT = .12317644E-2

CCSDS_OMM_VERS = 2.0
CREATION_DATE  = 
ORIGINATOR     = 

OBJECT_NAME    = STARLINK-37025
OBJECT_ID      = 2026-053S
CENTER_NAME    = EARTH
REF_FRAME      = TEME
TIME_SYSTEM    = UTC
MEAN_ELEMENT_THEORY = SGP/SGP4

EPOCH          = 2026-03-23T18:00:02.999808
MEAN_MOTION    = 15.98824484
ECCENTRICITY   = .00014555
INCLINATION    = 97.2775
RA_OF_ASC_NODE = 317.6083
ARG_OF_PERICENTER = 79.8178
MEAN_ANOMALY   = 357.7946

EPHEMERIS_TYPE = 0
CLASSIFICATION_TYPE = U
NORAD_CAT_ID   = 68223
ELEMENT_SET_NO = 999
REV_AT_EPOCH   = 227
BSTAR          = -.45024124E-2
MEAN_MOTION_DOT = -.2112431E-1
MEAN_MOTION_DDOT = .13043558E-2

CCSDS_OMM_VERS = 2.0
CREATION_DATE  = 
ORIGINATOR     = 

OBJECT_NAME    = STARLINK-36977
OBJECT_ID      = 2026-053T
CENTER_NAME    = EARTH
REF_FRAME      = TEME
TIME_SYSTEM    = UTC
MEAN_ELEMENT_THEORY = SGP/SGP4

EPOCH          = 2026-03-23T18:00:02.999808
MEAN_MOTION    = 15.98959351
ECCENTRICITY   = .0001484
INCLINATION    = 97.2770
RA_OF_ASC_NODE = 317.6091
ARG_OF_PERICENTER = 79.1251
MEAN_ANOMALY   = 0.2391

EPHEMERIS_TYPE = 0
CLASSIFICATION_TYPE = U
NORAD_CAT_ID   = 68224
ELEMENT_SET_NO = 999
REV_AT_EPOCH   = 216
BSTAR          = -.44584457E-2
MEAN_MOTION_DOT = -.210764E-1
MEAN_MOTION_DDOT = .1300763E-2

CCSDS_OMM_VERS = 2.0
CREATION_DATE  = 
ORIGINATOR     = 

OBJECT_NAME    = STARLINK-36960
OBJECT_ID      = 2026-053U
CENTER_NAME    = EARTH
REF_FRAME      = TEME
TIME_SYSTEM    = UTC
MEAN_ELEMENT_THEORY = SGP/SGP4

EPOCH          = 2026-03-23T18:00:02.999808
MEAN_MOTION    = 15.99089223
ECCENTRICITY   = .0001395
INCLINATION    = 97.2771
RA_OF_ASC_NODE = 317.6098
ARG_OF_PERICENTER = 78.0835
MEAN_ANOMALY   = 2.9890

EPHEMERIS_TYPE = 0
CLASSIFICATION_TYPE = U
NORAD_CAT_ID   = 68225
ELEMENT_SET_NO = 999
REV_AT_EPOCH   = 225
BSTAR          = -.44054649E-2
MEAN_MOTION_DOT = -.2097811E-1
MEAN_MOTION_DDOT = .12911383E-2

CCSDS_OMM_VERS = 2.0
CREATION_DATE  = 
ORIGINATOR     = 

OBJECT_NAME    = STARLINK-37038
OBJECT_ID      = 2026-053V
CENTER_NAME    = EARTH
REF_FRAME      = TEME
TIME_SYSTEM    = UTC
MEAN_ELEMENT_THEORY = SGP/SGP4

EPOCH          = 2026-03-23T18:00:02.999808
MEAN_MOTION    = 15.99375706
ECCENTRICITY   = .00014356
INCLINATION    = 97.2773
RA_OF_ASC_NODE = 317.6118
ARG_OF_PERICENTER = 77.2974
MEAN_ANOMALY   = 7.7113

EPHEMERIS_TYPE = 0
CLASSIFICATION_TYPE = U
NORAD_CAT_ID   = 68226
ELEMENT_SET_NO = 999
REV_AT_EPOCH   = 225
BSTAR          = -.43512046E-2
MEAN_MOTION_DOT = -.2105406E-1
MEAN_MOTION_DDOT = .13045785E-2

CCSDS_OMM_VERS = 2.0
CREATION_DATE  = 
ORIGINATOR     = 

OBJECT_NAME    = STARLINK-37083
OBJECT_ID      = 2026-053W
CENTER_NAME    = EARTH
REF_FRAME      = TEME
TIME_SYSTEM    = UTC
MEAN_ELEMENT_THEORY = SGP/SGP4

EPOCH          = 2026-03-17T22:00:03.000096
MEAN_MOTION    = 16.09297729
ECCENTRICITY   = .0011267
INCLINATION    = 97.2838
RA_OF_ASC_NODE = 311.1986
ARG_OF_PERICENTER = 270.0799
MEAN_ANOMALY   = 280.1631

EPHEMERIS_TYPE = 0
CLASSIFICATION_TYPE = U
NORAD_CAT_ID   = 68227
ELEMENT_SET_NO = 999
REV_AT_EPOCH   = 131
BSTAR          = .50505E-3
MEAN_MOTION_DOT = .451132E-2
MEAN_MOTION_DDOT = .10337E-3

CCSDS_OMM_VERS = 2.0
CREATION_DATE  = 
ORIGINATOR     = 

OBJECT_NAME    = STARLINK-37050
OBJECT_ID      = 2026-053X
CENTER_NAME    = EARTH
REF_FRAME      = TEME
TIME_SYSTEM    = UTC
MEAN_ELEMENT_THEORY = SGP/SGP4

EPOCH          = 2026-03-23T18:00:02.999808
MEAN_MOTION    = 15.99517400
ECCENTRICITY   = .00015013
INCLINATION    = 97.2775
RA_OF_ASC_NODE = 317.6131
ARG_OF_PERICENTER = 78.1536
MEAN_ANOMALY   = 8.9822

EPHEMERIS_TYPE = 0
CLASSIFICATION_TYPE = U
NORAD_CAT_ID   = 68228
ELEMENT_SET_NO = 999
REV_AT_EPOCH   = 225
BSTAR          = -.4314302E-2
MEAN_MOTION_DOT = -.2104251E-1
MEAN_MOTION_DDOT = .13054187E-2

CCSDS_OMM_VERS = 2.0
CREATION_DATE  = 
ORIGINATOR     = 

OBJECT_NAME    = STARLINK-37081
OBJECT_ID      = 2026-053Y
CENTER_NAME    = EARTH
REF_FRAME      = TEME
TIME_SYSTEM    = UTC
MEAN_ELEMENT_THEORY = SGP/SGP4

EPOCH          = 2026-03-23T18:00:02.999808
MEAN_MOTION    = 15.99930003
ECCENTRICITY   = .00015369
INCLINATION    = 97.2770
RA_OF_ASC_NODE = 317.6154
ARG_OF_PERICENTER = 75.6812
MEAN_ANOMALY   = 17.2418

EPHEMERIS_TYPE = 0
CLASSIFICATION_TYPE = U
NORAD_CAT_ID   = 68229
ELEMENT_SET_NO = 999
REV_AT_EPOCH   = 227
BSTAR          = -.4210507E-2
MEAN_MOTION_DOT = -.210194E-1
MEAN_MOTION_DDOT = .13091562E-2

